$$SOE
2460721.500000000, A.D. 2025-Feb-15 00:00:00.0000, -1.993443918387332E+08, -5.670916895978309E+08, 2.126441543380773E+07,
2460728.500000000, A.D. 2025-Feb-22 00:00:00.0000, -1.912269405525306E+08, -5.706907312548128E+08, 2.085588130819404E+07,
2460735.500000000, A.D. 2025-Mar-01 00:00:00.0000, -1.830669857651424E+08, -5.741630055773690E+08, 2.044271183742833E+07,
2460742.500000000, A.D. 2025-Mar-08 00:00:00.0000, -1.748664895237857E+08, -5.775082160508964E+08, 2.002501546586740E+07,
2460749.500000000, A.D. 2025-Mar-15 00:00:00.0000, -1.666274067845646E+08, -5.807260934138088E+08, 1.960290078969604E+07,
2460756.500000000, A.D. 2025-Mar-22 00:00:00.0000, -1.583516873045549E+08, -5.838163948526446E+08, 1.917647677468327E+07,
2460763.500000000, A.D. 2025-Mar-29 00:00:00.0000, -1.500412761769656E+08, -5.867789054524996E+08, 1.874585266586161E+07,
2460770.500000000, A.D. 2025-Apr-05 00:00:00.0000, -1.416981126839854E+08, -5.896134387652698E+08, 1.831113781552771E+07,
2460777.500000000, A.D. 2025-Apr-12 00:00:00.0000, -1.333241293932803E+08, -5.923198363920436E+08, 1.787244161445579E+07,
2460784.500000000, A.D. 2025-Apr-19 00:00:00.0000, -1.249212516852843E+08, -5.948979674609373E+08, 1.742987347118989E+07,
2460791.500000000, A.D. 2025-Apr-26 00:00:00.0000, -1.164913974395195E+08, -5.973477282031426E+08, 1.698354279762828E+07,
2460798.500000000, A.D. 2025-May-03 00:00:00.0000, -1.080364767661013E+08, -5.996690416076059E+08, 1.653355899178842E+07,
2460805.500000000, A.D. 2025-May-10 00:00:00.0000, -9.955839175358726E+07, -6.018618571452063E+08, 1.608003141561869E+07,
2460812.500000000, A.D. 2025-May-17 00:00:00.0000, -9.105903619607539E+07, -6.039261506030251E+08, 1.562306936095959E+07,
2460819.500000000, A.D. 2025-May-24 00:00:00.0000, -8.254029512517467E+07, -6.058619240828570E+08, 1.516278198313046E+07,
2460826.500000000, A.D. 2025-May-31 00:00:00.0000, -7.400404372856934E+07, -6.076692058528988E+08, 1.469927818915546E+07,
2460833.500000000, A.D. 2025-Jun-07 00:00:00.0000, -6.545214605571252E+07, -6.093480488479046E+08, 1.423266661583447E+07,
2460840.500000000, A.D. 2025-Jun-14 00:00:00.0000, -5.688645587488165E+07, -6.108985284845964E+08, 1.376305586001769E+07,
2460847.500000000, A.D. 2025-Jun-21 00:00:00.0000, -4.830881846434055E+07, -6.123207430636308E+08, 1.329055458211344E+07,
2460854.500000000, A.D. 2025-Jun-28 00:00:00.0000, -3.972107020900771E+07, -6.136148149938701E+08, 1.281527134015834E+07,
2460861.500000000, A.D. 2025-Jul-05 00:00:00.0000, -3.112503751926334E+07, -6.147808906829460E+08, 1.233731446988657E+07,
2460868.500000000, A.D. 2025-Jul-12 00:00:00.0000, -2.252253626284606E+07, -6.158191398994886E+08, 1.185679205430794E+07,
2460875.500000000, A.D. 2025-Jul-19 00:00:00.0000, -1.391537152010212E+07, -6.167297551819415E+08, 1.137381191847566E+07,
2460882.500000000, A.D. 2025-Jul-26 00:00:00.0000, -5.305337452407853E+06, -6.175129513503488E+08, 1.088848162563038E+07,
2460889.500000000, A.D. 2025-Aug-02 00:00:00.0000, 3.305782781929107E+06, -6.181689650992804E+08, 1.040090847056872E+07,
2460896.500000000, A.D. 2025-Aug-09 00:00:00.0000, 1.191621708806142E+07, -6.186980546863737E+08, 9.911199467003256E+06,
2460903.500000000, A.D. 2025-Aug-16 00:00:00.0000, 2.052420454856532E+07, -6.191004997796303E+08, 9.419461316844285E+06,
2460910.500000000, A.D. 2025-Aug-23 00:00:00.0000, 2.912799588384944E+07, -6.193766014469829E+08, 8.925800336122006E+06,
2460917.500000000, A.D. 2025-Aug-30 00:00:00.0000, 3.772585458807426E+07, -6.195266815741212E+08, 8.430322365973979E+06,
2460924.500000000, A.D. 2025-Sep-06 00:00:00.0000, 4.631605732245483E+07, -6.195510807101583E+08, 7.933132880767971E+06,
2460931.500000000, A.D. 2025-Sep-13 00:00:00.0000, 5.489689189530514E+07, -6.194501568234534E+08, 7.434337243906587E+06,
2460938.500000000, A.D. 2025-Sep-20 00:00:00.0000, 6.346665610253278E+07, -6.192242866115733E+08, 6.934040676890194E+06,
2460945.500000000, A.D. 2025-Sep-27 00:00:00.0000, 7.202365848759261E+07, -6.188738662539402E+08, 6.432348099042594E+06,
2460952.500000000, A.D. 2025-Oct-04 00:00:00.0000, 8.056621900440498E+07, -6.183993110680836E+08, 5.929364067126691E+06,
2460959.500000000, A.D. 2025-Oct-11 00:00:00.0000, 8.909266920970990E+07, -6.178010550123680E+08, 5.425192772167802E+06,
2460966.500000000, A.D. 2025-Oct-18 00:00:00.0000, 9.760135226867758E+07, -6.170795503093029E+08, 4.919938045067757E+06,
2460973.500000000, A.D. 2025-Oct-25 00:00:00.0000, 1.060906229134816E+08, -6.162352671780077E+08, 4.413703359056711E+06,
2460980.500000000, A.D. 2025-Nov-01 00:00:00.0000, 1.145588473944882E+08, -6.152686936598213E+08, 3.906591826501399E+06,
2460987.500000000, A.D. 2025-Nov-08 00:00:00.0000, 1.230044034589013E+08, -6.141803355679599E+08, 3.398706184149712E+06,
2460994.500000000, A.D. 2025-Nov-15 00:00:00.0000, 1.314256805050519E+08, -6.129707166194023E+08, 2.890148748254746E+06,
2461001.500000000, A.D. 2025-Nov-22 00:00:00.0000, 1.398210803152995E+08, -6.116403785287212E+08, 2.381021320421517E+06,
2461008.500000000, A.D. 2025-Nov-29 00:00:00.0000, 1.481890182144413E+08, -6.101898799287857E+08, 1.871425150789618E+06,
2461015.500000000, A.D. 2025-Dec-06 00:00:00.0000, 1.565279223761077E+08, -6.086197942540497E+08, 1.361461156129599E+06,
2461022.500000000, A.D. 2025-Dec-13 00:00:00.0000, 1.648362317107971E+08, -6.069307099560387E+08, 8.512300774427950E+05,
2461029.500000000, A.D. 2025-Dec-20 00:00:00.0000, 1.731123958290323E+08, -6.051232320273901E+08, 3.408323401303589E+05,
2461036.500000000, A.D. 2025-Dec-27 00:00:00.0000, 1.813548760060322E+08, -6.031979822429874E+08, -1.696320730689466E+05,
2461043.500000000, A.D. 2026-Jan-03 00:00:00.0000, 1.895621456886003E+08, -6.011555987332675E+08, -6.800636528420746E+05,
2461050.500000000, A.D. 2026-Jan-10 00:00:00.0000, 1.977326906538794E+08, -5.989967355676342E+08, -1.190363363289028E+06,
2461057.500000000, A.D. 2026-Jan-17 00:00:00.0000, 2.058650090525532E+08, -5.967220624382677E+08, -1.700432639905095E+06,
2461064.500000000, A.D. 2026-Jan-24 00:00:00.0000, 2.139576114146629E+08, -5.943322644203019E+08, -2.210173390795350E+06,
2461071.500000000, A.D. 2026-Jan-31 00:00:00.0000, 2.220090206419201E+08, -5.918280418145362E+08, -2.719488003813803E+06,
2461078.500000000, A.D. 2026-Feb-07 00:00:00.0000, 2.300177720485940E+08, -5.892101101290711E+08, -3.228279369873077E+06,
2461085.500000000, A.D. 2026-Feb-14 00:00:00.0000, 2.379824137045758E+08, -5.864792002145916E+08, -3.736450946783423E+06,
2461092.500000000, A.D. 2026-Feb-21 00:00:00.0000, 2.459015074685455E+08, -5.836360579760439E+08, -4.243906851884514E+06,
2461099.500000000, A.D. 2026-Feb-28 00:00:00.0000, 2.537736296264167E+08, -5.806814425071757E+08, -4.750551789579600E+06,
2461106.500000000, A.D. 2026-Mar-07 00:00:00.0000, 2.615973690762115E+08, -5.776161245975852E+08, -5.256290784238338E+06,
2461113.500000000, A.D. 2026-Mar-14 00:00:00.0000, 2.693713258349479E+08, -5.744408879443518E+08, -5.761029163648844E+06,
2461120.500000000, A.D. 2026-Mar-21 00:00:00.0000, 2.770941116507078E+08, -5.711565301699606E+08, -6.264672719630420E+06,
2461127.500000000, A.D. 2026-Mar-28 00:00:00.0000, 2.847643507107361E+08, -5.677638626179366E+08, -6.767127777314782E+06,
2461134.500000000, A.D. 2026-Apr-04 00:00:00.0000, 2.923806798419399E+08, -5.642637098918519E+08, -7.268301196481675E+06,
2461141.500000000, A.D. 2026-Apr-11 00:00:00.0000, 2.999417484777913E+08, -5.606569094975821E+08, -7.768100359308690E+06,
2461148.500000000, A.D. 2026-Apr-18 00:00:00.0000, 3.074462185510899E+08, -5.569443115954051E+08, -8.266433159503043E+06,
2461155.500000000, A.D. 2026-Apr-25 00:00:00.0000, 3.148927643587013E+08, -5.531267788471060E+08, -8.763207995627165E+06,
2461162.500000000, A.D. 2026-May-02 00:00:00.0000, 3.222800724293581E+08, -5.492051863874958E+08, -9.258333773683161E+06,
2461169.500000000, A.D. 2026-May-09 00:00:00.0000, 3.296068415196689E+08, -5.451804219863294E+08, -9.751719935651660E+06,
2461176.500000000, A.D. 2026-May-16 00:00:00.0000, 3.368717831169655E+08, -5.410533862621655E+08, -1.024327653722781E+07,
2461183.500000000, A.D. 2026-May-23 00:00:00.0000, 3.440736225014585E+08, -5.368249919259489E+08, -1.073291429587319E+07,
2461190.500000000, A.D. 2026-May-30 00:00:00.0000, 3.512110982895267E+08, -5.324961617350166E+08, -1.122054439241597E+07,
2461197.500000000, A.D. 2026-Jun-06 00:00:00.0000, 3.582829601407198E+08, -5.280678284308976E+08, -1.170607826471147E+07,
2461204.500000000, A.D. 2026-Jun-13 00:00:00.0000, 3.652879682945044E+08, -5.235409364614592E+08, -1.218942771351019E+07,
2461211.500000000, A.D. 2026-Jun-20 00:00:00.0000, 3.722248944361117E+08, -5.189164425611812E+08, -1.267050503566214E+07,
2461218.500000000, A.D. 2026-Jun-27 00:00:00.0000, 3.790925221933845E+08, -5.141953155295693E+08, -1.314922305690446E+07,
2461225.500000000, A.D. 2026-Jul-04 00:00:00.0000, 3.858896472646120E+08, -5.093785359826460E+08, -1.362549512782741E+07,
2461232.500000000, A.D. 2026-Jul-11 00:00:00.0000, 3.926150774313222E+08, -5.044670962093860E+08, -1.409923511736882E+07,
2461239.500000000, A.D. 2026-Jul-18 00:00:00.0000, 3.992676325487603E+08, -4.994620001072774E+08, -1.457035741050887E+07,
2461246.500000000, A.D. 2026-Jul-25 00:00:00.0000, 4.058461445384538E+08, -4.943642631941358E+08, -1.503877691242129E+07,
2461253.500000000, A.D. 2026-Aug-01 00:00:00.0000, 4.123494574309006E+08, -4.891749127440330E+08, -1.550440906762993E+07,
2461260.500000000, A.D. 2026-Aug-08 00:00:00.0000, 4.187764276732922E+08, -4.838949880828761E+08, -1.596716991696340E+07,
2461267.500000000, A.D. 2026-Aug-15 00:00:00.0000, 4.251259251175154E+08, -4.785255405930068E+08, -1.642697619365966E+07,
2461274.500000000, A.D. 2026-Aug-22 00:00:00.0000, 4.313968339275985E+08, -4.730676322056001E+08, -1.688374528904629E+07,
2461281.500000000, A.D. 2026-Aug-29 00:00:00.0000, 4.375880511172871E+08, -4.675223337537005E+08, -1.733739499004006E+07,
2461288.500000000, A.D. 2026-Sep-05 00:00:00.0000, 4.436984848507621E+08, -4.618907260535195E+08, -1.778784341857335E+07,
$$EOE